OBJECT_NAME,OBJECT_ID,EPOCH,MEAN_MOTION,ECCENTRICITY,INCLINATION,RA_OF_ASC_NODE,ARG_OF_PERICENTER,MEAN_ANOMALY,EPHEMERIS_TYPE,CLASSIFICATION_TYPE,NORAD_CAT_ID,ELEMENT_SET_NO,REV_AT_EPOCH,BSTAR,MEAN_MOTION_DOT,MEAN_MOTION_DDOT
HYLAS 2,2012-043B,2026-06-09T10:38:35.604960,1.00270749,.000271,2.4062,81.1605,20.9624,242.7789,0,U,38741,999,5069,0,-.241E-5,0
INTELSAT 21 (IS-21),2012-045A,2026-06-09T11:21:01.340352,1.00267497,.0001706,0.0247,280.5498,177.4936,272.0574,0,U,38749,999,5044,0,-.268E-5,0
ASTRA 2F,2012-051A,2026-06-09T05:35:38.651136,1.00273649,.0001099,0.0427,255.9186,279.9544,193.8456,0,U,38778,999,4105,0,.167E-5,0
GSAT-10,2012-051B,2026-06-09T12:01:18.827040,1.00271359,.0007916,0.0156,287.5564,162.1406,71.5404,0,U,38779,999,5002,0,-.148E-5,0
INTELSAT 23 (IS-23),2012-057A,2026-06-09T04:19:38.532576,1.00274773,.00004673,0.0104,345.9313,117.0400,166.5175,0,U,38867,999,4987,0,-.268E-5,0
BEIDOU-2 G6,2012-059A,2026-06-09T08:36:10.683072,1.00274173,.0010101,4.4005,73.6062,324.9637,72.2152,0,U,38953,999,4983,0,-.16E-5,0
LUCH-5B,2012-061A,2026-06-08T23:34:16.629888,1.00273763,.00019262,10.4635,49.9603,138.4852,46.1949,0,U,38977,999,4952,0,-.125E-5,0
YAMAL 300K,2012-061B,2026-06-09T12:32:38.687136,1.00271696,.0001325,0.0115,274.9968,299.3593,54.6589,0,U,38978,999,4955,0,.88E-6,0
STAR ONE C3,2012-062A,2026-06-09T04:25:32.121984,1.00269174,.0002497,0.0177,10.8282,83.7039,154.4060,0,U,38991,999,4968,0,-.232E-5,0
EUTELSAT 21B,2012-062B,2026-06-09T11:43:36.672960,1.00271558,.0003041,0.0652,355.7106,79.4003,20.2226,0,U,38992,999,4975,0,.147E-5,0
ECHOSTAR 16,2012-065A,2026-06-09T09:48:19.276416,1.00270376,.0001915,0.0177,343.0746,95.7338,264.5655,0,U,39008,999,4956,0,-.265E-5,0
ZHONGXING-12,2012-067A,2026-06-09T06:54:20.405952,1.00270624,.000326,0.0507,97.0140,338.8292,12.9096,0,U,39017,999,4943,0,-.19E-5,0
EUTELSAT 70B,2012-069A,2026-06-09T11:57:41.675328,1.00271774,.0003987,0.0612,358.7514,72.3141,76.7155,0,U,39020,999,4943,0,-.26E-6,0
YAMAL 402,2012-070A,2026-06-09T11:53:19.593888,1.00272073,.0003772,1.2444,84.2553,350.6403,56.2046,0,U,39022,999,4932,0,.103E-5,0
SKYNET 5D,2012-075A,2026-06-09T11:52:42.154176,1.00273123,.0003762,0.0667,4.0078,83.1306,41.6950,0,U,39034,999,4908,0,.116E-5,0
MEXSAT 3,2012-075B,2026-06-09T11:12:42.280128,1.00268999,.0001276,0.0331,92.8103,340.1435,238.2596,0,U,39035,999,697,0,-.8E-7,0
TDRS 11,2013-004A,2026-06-09T12:32:38.687136,1.00266776,.0005642,3.5100,31.1399,16.7434,223.8518,0,U,39070,999,4661,0,.94E-6,0
AMAZONAS 3,2013-006A,2026-06-09T11:20:08.924064,1.00268361,.0002222,0.0434,241.5843,230.5106,254.7828,0,U,39078,999,4483,0,-.265E-5,0
AZERSPACE 1,2013-006B,2026-06-09T11:50:42.345024,1.00272523,.0001442,0.0156,312.8781,159.3503,9.3089,0,U,39079,999,4873,0,.15E-5,0
SBIRS GEO-2 (USA 241),2013-011A,2026-06-09T11:23:23.611776,1.00271368,.0002143,4.4738,52.5072,17.6514,308.7293,0,U,39120,999,4845,0,-.271E-5,0
EUTELSAT 117 WEST A,2013-012A,2026-06-09T07:41:39.636096,1.00272054,.0002751,0.0468,66.3574,16.0687,173.8873,0,U,39122,999,4835,0,.4E-7,0
ANIK G1,2013-014A,2026-06-09T11:08:40.735968,1.00271732,.0001631,0.0488,88.5349,343.0161,246.1570,0,U,39127,999,4817,0,-.57E-6,0
ZHONGXING-11,2013-020A,2026-06-09T12:05:33.421056,1.00273131,.0002446,0.0355,47.4389,25.1534,104.5971,0,U,39157,999,4782,0,-.274E-5,0
EUTELSAT 7B,2013-022A,2026-06-09T06:31:37.584192,1.00271377,.0004934,0.0695,12.5809,23.3656,326.6043,0,U,39163,999,4786,0,.65E-6,0
WGS F5 (USA 243),2013-024A,2026-06-08T23:23:57.306912,1.00274429,.00002413,0.0190,312.5891,61.7324,181.5264,0,U,39168,999,4709,0,-.268E-5,0
SES-6,2013-026A,2026-06-09T06:18:01.386720,1.00269746,.0002641,0.0202,325.5904,130.4883,215.5657,0,U,39172,999,4764,0,-.244E-5,0
IRNSS-1A,2013-034A,2026-05-22T20:37:38.469792,1.00280263,.00166187,35.6649,64.2334,185.3754,355.4646,0,U,39199,999,4711,0,.59E-6,0
MUOS-2,2013-036A,2026-06-09T11:55:04.548288,1.00271880,.0050678,4.9807,45.5243,177.8833,25.1654,0,U,39206,999,4711,0,.2E-7,0
ALPHASAT,2013-038A,2026-06-09T01:28:43.025376,1.00271496,.00019156,2.9977,1.3684,86.6359,216.4790,0,U,39215,999,4393,0,.149E-5,0
INSAT-3D,2013-038B,2026-06-09T12:14:30.439392,1.00273263,.0000748,1.9052,82.6392,316.2948,172.0932,0,U,39216,999,4700,0,-.322E-5,0
WGS F6 (USA 244),2013-041A,2026-06-09T02:25:40.636128,1.00270956,.00000393,0.0182,352.7221,271.0220,254.9885,0,U,39222,999,4598,0,.105E-5,0
ES'HAIL 1,2013-044A,2026-06-09T04:54:15.071040,1.00271199,.0002295,0.0490,5.2885,69.1262,282.2009,0,U,39233,999,4654,0,.16E-5,0
